[{"OBJECT_NAME":"UHETSAT","OBJECT_ID":"2023-185E","EPOCH":"2026-03-09T22:39:26.455680","MEAN_MOTION":15.29797662,"ECCENTRICITY":0.00118435,"INCLINATION":97.3584,"RA_OF_ASC_NODE":137.3576,"ARG_OF_PERICENTER":307.7346,"MEAN_ANOMALY":52.2821,"EPHEMERIS_TYPE":0,"CLASSIFICATION_TYPE":"U","NORAD_CAT_ID":58466,"ELEMENT_SET_NO":999,"REV_AT_EPOCH":12611,"BSTAR":0.00030513019,"MEAN_MOTION_DOT":8.749e-5,"MEAN_MOTION_DDOT":0},{"OBJECT_NAME":"STARLINK-34946","OBJECT_ID":"2025-190S","EPOCH":"2026-03-09T13:22:28.375968","MEAN_MOTION":15.301791,"ECCENTRICITY":0.0001216,"INCLINATION":53.1587,"RA_OF_ASC_NODE":168.8874,"ARG_OF_PERICENTER":110.0643,"MEAN_ANOMALY":250.0488,"EPHEMERIS_TYPE":0,"CLASSIFICATION_TYPE":"U","NORAD_CAT_ID":65367,"ELEMENT_SET_NO":999,"REV_AT_EPOCH":2973,"BSTAR":0.0010622,"MEAN_MOTION_DOT":0.00031212,"MEAN_MOTION_DDOT":0}]
